STARLINK-36218          
1 69968U 26157AB  26195.83335647 -.02029901  12320-2 -37043-2 0  9995
2 69968  53.1593 297.5913 0000954  55.4131 166.8119 16.00871188  1743
STARLINK-37921          
1 69969U 26157AC  26195.83335647 -.02041638  12550-2 -35916-2 0  9999
2 69969  53.1593 297.5733 0000948  59.7135 171.0655 16.01503571  2099
STARLINK-37896          
1 69970U 26157AD  26195.83335647 -.02054783  12708-2 -36103-2 0  9990
2 69970  53.1593 297.5703 0001027  71.7603 160.4231 16.01525680  2098
STARLINK-37922          
1 69971U 26157AE  26195.83335647 -.02039461  12528-2 -35834-2 0  9997
2 69971  53.1593 297.5686 0000883  61.5160 171.4935 16.01524214  2098
CHUANG XIN 26 (CX-26)   
1 69972U 26158A   26194.51442212 -.00000212  00000+0 -21871-4 0  9997
2 69972  49.9860 287.5119 0004887 294.2352  65.8050 14.25122238   462
CZ-10B DEB              
1 69973U 26158B   26194.58513205  .00000099  00000+0  11013-3 0  9993
2 69973  49.9846 287.2193 0005701 305.8104  54.2279 14.24885997   479
CZ-10B R/B              
1 69974U 26158C   26194.56253036  .00000143  00000+0  55130-4 0  9994
2 69974  49.9631 286.3519 0197944 194.8878 164.6170 14.64293949   480
STARLINK-38024          
1 69975U 26159A   26195.83335647 -.01915510  10954-2 -38522-2 0  9998
2 69975  97.2843  34.4030 0001330  89.7582 176.8294 15.99843886  1796
STARLINK-37993          
1 69976U 26159B   26195.83335647 -.01881441  10597-2 -37677-2 0  9997
2 69976  97.2841  34.4031 0001312  85.6133 181.4795 15.99915256  1792
STARLINK-37995          
1 69977U 26159C   26195.83335647 -.01859254  10374-2 -37034-2 0  9995
2 69977  97.2842  34.4034 0001292  87.3526 180.2596 16.00007771  1792
STARLINK-38057          
1 69978U 26159D   26195.83335647 -.01843031  10217-2 -36469-2 0  9999
2 69978  97.2841  34.4034 0001280  87.4113 180.7444 16.00123071  1791
STARLINK-38063          
1 69979U 26159E   26195.83335647 -.01830365  10100-2 -35961-2 0  9993
2 69979  97.2841  34.4038 0001285  83.2536 185.4536 16.00247385  1793
STARLINK-38093          
1 69980U 26159F   26195.83335647 -.01818420  99910-3 -35463-2 0  9997
2 69980  97.2841  34.4039 0001267  83.9169 185.3490 16.00376586  1799
STARLINK-38050          
1 69981U 26159G   26195.83335647 -.01803079  98453-3 -34944-2 0  9996
2 69981  97.2841  34.4041 0001237  85.4974 184.3052 16.00485187  1792
STARLINK-38065          
1 69982U 26159H   26195.83335647 -.01791714  97426-3 -34482-2 0  9995
2 69982  97.2841  34.4045 0001223  86.3106 184.0415 16.00606681  1793
STARLINK-38077          
1 69983U 26159J   26195.83335647 -.01772821  95628-3 -33897-2 0  9995
2 69983  97.2840  34.4046 0001296  85.5966 185.3041 16.00718754  1793
STARLINK-38068          
1 69984U 26159K   26195.83335647 -.01754942  93919-3 -33385-2 0  9993
2 69984  97.2840  34.4048 0001256  89.5263 181.8891 16.00806117  1791
STARLINK-38089          
1 69985U 26159L   26195.83335647 -.01748458  93411-3 -33013-2 0  9994
2 69985  97.2839  34.4051 0001272  86.4732 185.4951 16.00936297  1799
STARLINK-38073          
1 69986U 26159M   26195.83335647 -.01737308  92409-3 -32604-2 0  9998
2 69986  97.2839  34.4052 0001250  87.2224 185.2848 16.01041399  1796
STARLINK-38099          
1 69987U 26159N   26195.83335647 -.01725038  91292-3 -32191-2 0  9996
2 69987  97.2838  34.4054 0001259  86.7526 186.2755 16.01138579  1791
STARLINK-38064          
1 69988U 26159P   26195.83335647 -.01703871  89430-3 -31397-2 0  9996
2 69988  97.2838  34.4057 0001197  83.3429 190.7621 16.01356415  1794
STARLINK-38080          
1 69989U 26159Q   26195.83335647 -.01720231  90938-3 -31888-2 0  9996
2 69989  97.2838  34.4057 0001288  84.1560 189.4150 16.01254421  1797
STARLINK-38070          
1 69990U 26159R   26195.83335647 -.01694365  88617-3 -31013-2 0  9997
2 69990  97.2837  34.4060 0001188  84.3996 190.2520 16.01472109  1792
STARLINK-38042          
1 69991U 26159S   26195.83335647 -.01679523  87248-3 -30602-2 0  9999
2 69991  97.2836  34.4061 0001262  87.0450 188.1159 16.01548837  1797
STARLINK-38071          
1 69992U 26159T   26195.83335647 -.01666568  86082-3 -30208-2 0  9992
2 69992  97.2837  34.4064 0001182  82.0946 193.5790 16.01637719  1797
STARLINK-38082          
1 69993U 26159U   26195.83335647 -.01656110  85166-3 -29857-2 0  9995
2 69993  97.2837  34.4065 0001214  91.1377 185.0563 16.01730037  1795
STARLINK-38090          
1 69994U 26159V   26195.83335647 -.01645490  84243-3 -29498-2 0  9991
2 69994  97.2837  34.4069 0001296  78.7877 197.9341 16.01826415  1798
STARLINK-38084          
1 69995U 26159W   26195.83335647 -.01638432  83683-3 -29174-2 0  9998
2 69995  97.2837  34.4072 0001183  81.1198 196.1463 16.01942637  1793
STARLINK-38085          
1 69996U 26159X   26195.83335647 -.01624671  82450-3 -28794-2 0  9997
2 69996  97.2837  34.4075 0001168  85.6019 192.1733 16.02021222  1796
