OBJECT_NAME,OBJECT_ID,EPOCH,MEAN_MOTION,ECCENTRICITY,INCLINATION,RA_OF_ASC_NODE,ARG_OF_PERICENTER,MEAN_ANOMALY,EPHEMERIS_TYPE,CLASSIFICATION_TYPE,NORAD_CAT_ID,ELEMENT_SET_NO,REV_AT_EPOCH,BSTAR,MEAN_MOTION_DOT,MEAN_MOTION_DDOT
STARLINK-36218,2026-157AB,2026-07-14T20:00:01.999008,16.00871188,.0000954,53.1593,297.5913,55.4131,166.8119,0,U,69968,999,174,-.37043E-2,-.2029901E-1,.1232E-2
STARLINK-37921,2026-157AC,2026-07-14T20:00:01.999008,16.01503571,.0000948,53.1593,297.5733,59.7135,171.0655,0,U,69969,999,209,-.35916E-2,-.2041638E-1,.1255E-2
STARLINK-37896,2026-157AD,2026-07-14T20:00:01.999008,16.01525680,.0001027,53.1593,297.5703,71.7603,160.4231,0,U,69970,999,209,-.36103E-2,-.2054783E-1,.12708E-2
STARLINK-37922,2026-157AE,2026-07-14T20:00:01.999008,16.01524214,.0000883,53.1593,297.5686,61.5160,171.4935,0,U,69971,999,209,-.35834E-2,-.2039461E-1,.12528E-2
CHUANG XIN 26 (CX-26),2026-158A,2026-07-13T12:20:46.071168,14.25122238,.0004887,49.9860,287.5119,294.2352,65.8050,0,U,69972,999,46,-.21871415E-4,-.212E-5,0
CZ-10B DEB,2026-158B,2026-07-13T14:02:35.409120,14.24885997,.0005701,49.9846,287.2193,305.8104,54.2279,0,U,69973,999,47,.11013E-3,.99E-6,0
CZ-10B R/B,2026-158C,2026-07-13T13:30:02.623104,14.64293949,.01979448,49.9631,286.3519,194.8878,164.6170,0,U,69974,999,48,.55130296E-4,.143E-5,0
STARLINK-38024,2026-159A,2026-07-14T20:00:01.999008,15.99843886,.000133,97.2843,34.4030,89.7582,176.8294,0,U,69975,999,179,-.38522E-2,-.191551E-1,.10954E-2
STARLINK-37993,2026-159B,2026-07-14T20:00:01.999008,15.99915256,.0001312,97.2841,34.4031,85.6133,181.4795,0,U,69976,999,179,-.37677E-2,-.1881441E-1,.10597E-2
STARLINK-37995,2026-159C,2026-07-14T20:00:01.999008,16.00007771,.0001292,97.2842,34.4034,87.3526,180.2596,0,U,69977,999,179,-.37034E-2,-.1859254E-1,.10374E-2
STARLINK-38057,2026-159D,2026-07-14T20:00:01.999008,16.00123071,.000128,97.2841,34.4034,87.4113,180.7444,0,U,69978,999,179,-.36469E-2,-.1843031E-1,.10217E-2
STARLINK-38063,2026-159E,2026-07-14T20:00:01.999008,16.00247385,.0001285,97.2841,34.4038,83.2536,185.4536,0,U,69979,999,179,-.35961E-2,-.1830365E-1,.101E-2
STARLINK-38093,2026-159F,2026-07-14T20:00:01.999008,16.00376586,.0001267,97.2841,34.4039,83.9169,185.3490,0,U,69980,999,179,-.35463E-2,-.181842E-1,.9991E-3
STARLINK-38050,2026-159G,2026-07-14T20:00:01.999008,16.00485187,.0001237,97.2841,34.4041,85.4974,184.3052,0,U,69981,999,179,-.34944E-2,-.1803079E-1,.98453E-3
STARLINK-38065,2026-159H,2026-07-14T20:00:01.999008,16.00606681,.0001223,97.2841,34.4045,86.3106,184.0415,0,U,69982,999,179,-.34482E-2,-.1791714E-1,.97426E-3
STARLINK-38077,2026-159J,2026-07-14T20:00:01.999008,16.00718754,.0001296,97.2840,34.4046,85.5966,185.3041,0,U,69983,999,179,-.33897E-2,-.1772821E-1,.95628E-3
STARLINK-38068,2026-159K,2026-07-14T20:00:01.999008,16.00806117,.0001256,97.2840,34.4048,89.5263,181.8891,0,U,69984,999,179,-.33385E-2,-.1754942E-1,.93919E-3
STARLINK-38089,2026-159L,2026-07-14T20:00:01.999008,16.00936297,.0001272,97.2839,34.4051,86.4732,185.4951,0,U,69985,999,179,-.33013E-2,-.1748458E-1,.93411E-3
STARLINK-38073,2026-159M,2026-07-14T20:00:01.999008,16.01041399,.000125,97.2839,34.4052,87.2224,185.2848,0,U,69986,999,179,-.32604E-2,-.1737308E-1,.92409E-3
STARLINK-38099,2026-159N,2026-07-14T20:00:01.999008,16.01138579,.0001259,97.2838,34.4054,86.7526,186.2755,0,U,69987,999,179,-.32191E-2,-.1725038E-1,.91292E-3
STARLINK-38064,2026-159P,2026-07-14T20:00:01.999008,16.01356415,.0001197,97.2838,34.4057,83.3429,190.7621,0,U,69988,999,179,-.31397E-2,-.1703871E-1,.8943E-3
STARLINK-38080,2026-159Q,2026-07-14T20:00:01.999008,16.01254421,.0001288,97.2838,34.4057,84.1560,189.4150,0,U,69989,999,179,-.31888E-2,-.1720231E-1,.90938E-3
STARLINK-38070,2026-159R,2026-07-14T20:00:01.999008,16.01472109,.0001188,97.2837,34.4060,84.3996,190.2520,0,U,69990,999,179,-.31013E-2,-.1694365E-1,.88617E-3
STARLINK-38042,2026-159S,2026-07-14T20:00:01.999008,16.01548837,.0001262,97.2836,34.4061,87.0450,188.1159,0,U,69991,999,179,-.30602E-2,-.1679523E-1,.87248E-3
STARLINK-38071,2026-159T,2026-07-14T20:00:01.999008,16.01637719,.0001182,97.2837,34.4064,82.0946,193.5790,0,U,69992,999,179,-.30208E-2,-.1666568E-1,.86082E-3
STARLINK-38082,2026-159U,2026-07-14T20:00:01.999008,16.01730037,.0001214,97.2837,34.4065,91.1377,185.0563,0,U,69993,999,179,-.29857E-2,-.165611E-1,.85166E-3
STARLINK-38090,2026-159V,2026-07-14T20:00:01.999008,16.01826415,.0001296,97.2837,34.4069,78.7877,197.9341,0,U,69994,999,179,-.29498E-2,-.164549E-1,.84243E-3
STARLINK-38084,2026-159W,2026-07-14T20:00:01.999008,16.01942637,.0001183,97.2837,34.4072,81.1198,196.1463,0,U,69995,999,179,-.29174E-2,-.1638432E-1,.83683E-3
STARLINK-38085,2026-159X,2026-07-14T20:00:01.999008,16.02021222,.0001168,97.2837,34.4075,85.6019,192.1733,0,U,69996,999,179,-.28794E-2,-.1624671E-1,.8245E-3
